[{"OBJECT_NAME":"JINJUSAT-1B","OBJECT_ID":"2025-052A","EPOCH":"2026-03-09T15:55:38.242848","MEAN_MOTION":15.30194857,"ECCENTRICITY":0.00055504,"INCLINATION":97.4113,"RA_OF_ASC_NODE":325.4613,"ARG_OF_PERICENTER":82.193,"MEAN_ANOMALY":277.9941,"EPHEMERIS_TYPE":0,"CLASSIFICATION_TYPE":"U","NORAD_CAT_ID":63210,"ELEMENT_SET_NO":999,"REV_AT_EPOCH":5486,"BSTAR":0.00068430401,"MEAN_MOTION_DOT":0.00019955,"MEAN_MOTION_DDOT":0},{"OBJECT_NAME":"STARLINK-34817","OBJECT_ID":"2025-190M","EPOCH":"2026-03-09T12:17:17.759904","MEAN_MOTION":15.3018852,"ECCENTRICITY":0.00011812,"INCLINATION":53.1583,"RA_OF_ASC_NODE":169.3105,"ARG_OF_PERICENTER":88.8489,"MEAN_ANOMALY":271.2647,"EPHEMERIS_TYPE":0,"CLASSIFICATION_TYPE":"U","NORAD_CAT_ID":65362,"ELEMENT_SET_NO":999,"REV_AT_EPOCH":2972,"BSTAR":0.00087945293,"MEAN_MOTION_DOT":0.00025769,"MEAN_MOTION_DDOT":0}]
